1 48859U 21054A   22163.44225417 -.00000069  00000-0  00000-0 0  9995
2 48859  55.1820  31.2500 0004320 191.4916 350.0064  2.00573681  7353
